start=new Date('2023-05-09T00:00:00.000Z').valueOf();
sats=[{"TLE_LINE2":"2 45413  53.0552 107.4967 0001330  88.4300 271.6841 15.06398334173803","MEAN_ELEMENT_THEORY":"SGP4","LAUNCH_DATE":"2020-03-18","MEAN_ANOMALY":"271.6841","ELEMENT_SET_NO":"999","TIME_SYSTEM":"UTC","MEAN_MOTION_DOT":"0.00001475","FILE":"3904305","CENTER_NAME":"EARTH","EPHEMERIS_TYPE":"0","CLASSIFICATION_TYPE":"U","COUNTRY_CODE":"US","SEMIMAJOR_AXIS":"6925.354","EPOCH":"2023-05-08T16:03:59.056128","INCLINATION":"53.0552","OBJECT_TYPE":"PAYLOAD","ECCENTRICITY":"0.00013300","BSTAR":"0.00011789000000","OBJECT_NAME":"STARLINK-1298","RA_OF_ASC_NODE":"107.4967","MEAN_MOTION_DDOT":"0.0000000000000","APOAPSIS":"548.140","DECAY_DATE":null,"TLE_LINE1":"1 45413U 20019BF  23128.66943352  .00001475  00000-0  11789-3 0  9999","GP_ID":"231471140","PERIAPSIS":"546.298","PERIOD":"95.592","RCS_SIZE":"LARGE","REF_FRAME":"TEME","OBJECT_ID":"2020-019BF","REV_AT_EPOCH":"17380","NORAD_CAT_ID":"45413","MEAN_MOTION":"15.06398334","ARG_OF_PERICENTER":"88.4300","SITE":"AFETR"},{"ARG_OF_PERICENTER":"94.2021","SITE":"AFETR","NORAD_CAT_ID":"45414","MEAN_MOTION":"15.06398301","REV_AT_EPOCH":"17371","OBJECT_ID":"2020-019BG","PERIOD":"95.592","RCS_SIZE":"LARGE","REF_FRAME":"TEME","PERIAPSIS":"546.361","TLE_LINE1":"1 45414U 20019BG  23128.78738124  .00000695  00000-0  65520-4 0  9998","GP_ID":"231471896","DECAY_DATE":null,"APOAPSIS":"548.077","MEAN_MOTION_DDOT":"0.0000000000000","RA_OF_ASC_NODE":"106.9582","OBJECT_NAME":"STARLINK-1309","BSTAR":"0.00006552000000","ECCENTRICITY":"0.00012390","OBJECT_TYPE":"PAYLOAD","INCLINATION":"53.0546","EPOCH":"2023-05-08T18:53:49.739136","SEMIMAJOR_AXIS":"6925.354","CLASSIFICATION_TYPE":"U","COUNTRY_CODE":"US","EPHEMERIS_TYPE":"0","CENTER_NAME":"EARTH","FILE":"3904305","MEAN_MOTION_DOT":"0.00000695","TIME_SYSTEM":"UTC","LAUNCH_DATE":"2020-03-18","MEAN_ELEMENT_THEORY":"SGP4","MEAN_ANOMALY":"265.9110","ELEMENT_SET_NO":"999","TLE_LINE2":"2 45414  53.0546 106.9582 0001239  94.2021 265.9110 15.06398301173716"},{"REF_FRAME":"TEME","PERIOD":"95.592","RCS_SIZE":"LARGE","GP_ID":"231471643","TLE_LINE1":"1 45415U 20019BH  23128.68049219  .00000894  00000-0  78923-4 0  9990","PERIAPSIS":"546.245","DECAY_DATE":null,"APOAPSIS":"548.178","ARG_OF_PERICENTER":"91.0617","SITE":"AFETR","MEAN_MOTION":"15.06400671","NORAD_CAT_ID":"45415","REV_AT_EPOCH":"17373","OBJECT_ID":"2020-019BH","OBJECT_NAME":"STARLINK-1316","RA_OF_ASC_NODE":"107.4423","BSTAR":"0.00007892300000","ECCENTRICITY":"0.00013960","MEAN_MOTION_DDOT":"0.0000000000000","SEMIMAJOR_AXIS":"6925.347","COUNTRY_CODE":"US","CLASSIFICATION_TYPE":"U","EPHEMERIS_TYPE":"0","CENTER_NAME":"EARTH","OBJECT_TYPE":"PAYLOAD","INCLINATION":"53.0528","EPOCH":"2023-05-08T16:19:54.525216","LAUNCH_DATE":"2020-03-18","TIME_SYSTEM":"UTC","MEAN_ELEMENT_THEORY":"SGP4","MEAN_ANOMALY":"269.0532","ELEMENT_SET_NO":"999","TLE_LINE2":"2 45415  53.0528 107.4423 0001396  91.0617 269.0532 15.06400671173736","FILE":"3904305","MEAN_MOTION_DOT":"0.00000894"},{"CENTER_NAME":"EARTH","EPHEMERIS_TYPE":"0","COUNTRY_CODE":"US","CLASSIFICATION_TYPE":"U","SEMIMAJOR_AXIS":"6925.340","EPOCH":"2023-05-08T20:18:45.684576","INCLINATION":"53.0544","OBJECT_TYPE":"PAYLOAD","TLE_LINE2":"2 45416  53.0544 106.6998 0001357  88.2497 271.8647 15.06402856173740","TIME_SYSTEM":"UTC","LAUNCH_DATE":"2020-03-18","MEAN_ELEMENT_THEORY":"SGP4","MEAN_ANOMALY":"271.8647","ELEMENT_SET_NO":"999","MEAN_MOTION_DOT":"0.00002116","FILE":"3904305","APOAPSIS":"548.145","DECAY_DATE":null,"TLE_LINE1":"1 45416U 20019BJ  23128.84636209  .00002116  00000-0  16089-3 0  9993","PERIAPSIS":"546.265","GP_ID":"231470396","REF_FRAME":"TEME","RCS_SIZE":"LARGE","PERIOD":"95.592","OBJECT_ID":"2020-019BJ","REV_AT_EPOCH":"17374","MEAN_MOTION":"15.06402856","NORAD_CAT_ID":"45416","ARG_OF_PERICENTER":"88.2497","SITE":"AFETR","ECCENTRICITY":"0.00013570","BSTAR":"0.00016089000000","RA_OF_ASC_NODE":"106.6998","OBJECT_NAME":"STARLINK-1318","MEAN_MOTION_DDOT":"0.0000000000000"},{"MEAN_MOTION_DDOT":"0.0000000000000","RA_OF_ASC_NODE":"137.2762","OBJECT_NAME":"STARLINK-1286","BSTAR":"0.00006968700000","ECCENTRICITY":"0.00016370","ARG_OF_PERICENTER":"99.9708","SITE":"AFETR","NORAD_CAT_ID":"45417","MEAN_MOTION":"15.06391876","REV_AT_EPOCH":"17357","OBJECT_ID":"2020-019BK","PERIOD":"95.593","RCS_SIZE":"LARGE","REF_FRAME":"TEME","TLE_LINE1":"1 45417U 20019BK  23128.71827938  .00000756  00000-0  69687-4 0  9992","GP_ID":"231470641","PERIAPSIS":"546.105","DECAY_DATE":null,"APOAPSIS":"548.372","FILE":"3904305","MEAN_MOTION_DOT":"0.00000756","LAUNCH_DATE":"2020-03-18","ELEMENT_SET_NO":"999","MEAN_ELEMENT_THEORY":"SGP4","TIME_SYSTEM":"UTC","MEAN_ANOMALY":"260.1465","TLE_LINE2":"2 45417  53.0514 137.2762 0001637  99.9708 260.1465 15.06391876173571","OBJECT_TYPE":"PAYLOAD","INCLINATION":"53.0514","EPOCH":"2023-05-08T17:14:19.338432","SEMIMAJOR_AXIS":"6925.373","CLASSIFICATION_TYPE":"U","COUNTRY_CODE":"US","EPHEMERIS_TYPE":"0","CENTER_NAME":"EARTH"},{"ARG_OF_PERICENTER":"22.3804","SITE":"AFETR","MEAN_MOTION":"15.35527472","NORAD_CAT_ID":"45418","REV_AT_EPOCH":"17324","OBJECT_ID":"2020-019BL","REF_FRAME":"TEME","RCS_SIZE":"LARGE","PERIOD":"93.779","PERIAPSIS":"452.482","TLE_LINE1":"1 45418U 20019BL  23128.72491841  .00131242  00000-0  36878-2 0  9993","GP_ID":"231471396","DECAY_DATE":null,"APOAPSIS":"466.231","MEAN_MOTION_DDOT":"0.0000000000000","RA_OF_ASC_NODE":"137.8644","OBJECT_NAME":"STARLINK-1299","BSTAR":"0.00368780000000","ECCENTRICITY":"0.00100540","OBJECT_TYPE":"PAYLOAD","INCLINATION":"52.9850","EPOCH":"2023-05-08T17:23:52.950624","SEMIMAJOR_AXIS":"6837.491","COUNTRY_CODE":"US","CLASSIFICATION_TYPE":"U","EPHEMERIS_TYPE":"0","CENTER_NAME":"EARTH","FILE":"3904305","MEAN_MOTION_DOT":"0.00131242","MEAN_ELEMENT_THEORY":"SGP4","LAUNCH_DATE":"2020-03-18","TIME_SYSTEM":"UTC","ELEMENT_SET_NO":"999","MEAN_ANOMALY":"337.7634","TLE_LINE2":"2 45418  52.9850 137.8644 0010054  22.3804 337.7634 15.35527472173246"},{"SEMIMAJOR_AXIS":"6925.362","COUNTRY_CODE":"US","CLASSIFICATION_TYPE":"U","EPHEMERIS_TYPE":"0","CENTER_NAME":"EARTH","OBJECT_TYPE":"PAYLOAD","INCLINATION":"53.0519","EPOCH":"2023-05-08T17:09:00.369504","LAUNCH_DATE":"2020-03-18","MEAN_ANOMALY":"264.5282","MEAN_ELEMENT_THEORY":"SGP4","TIME_SYSTEM":"UTC","ELEMENT_SET_NO":"999","TLE_LINE2":"2 45419  53.0519 137.2934 0001223  95.5847 264.5282 15.06395641173328","FILE":"3904305","MEAN_MOTION_DOT":"0.00000352","REF_FRAME":"TEME","RCS_SIZE":"LARGE","PERIOD":"95.592","TLE_LINE1":"1 45419U 20019BM  23128.71458761  .00000352  00000-0  42530-4 0  9998","PERIAPSIS":"546.380","GP_ID":"231472144","DECAY_DATE":null,"APOAPSIS":"548.074","SITE":"AFETR","ARG_OF_PERICENTER":"95.5847","MEAN_MOTION":"15.06395641","NORAD_CAT_ID":"45419","REV_AT_EPOCH":"17332","OBJECT_ID":"2020-019BM","RA_OF_ASC_NODE":"137.2934","OBJECT_NAME":"STARLINK-1308","BSTAR":"0.00004253000000","ECCENTRICITY":"0.00012230","MEAN_MOTION_DDOT":"0.0000000000000"},{"MEAN_MOTION":"15.06389703","NORAD_CAT_ID":"45531","ARG_OF_PERICENTER":"80.8372","SITE":"AFETR","OBJECT_ID":"2020-025A","REV_AT_EPOCH":"16892","TLE_LINE1":"1 45531U 20025A   23128.55056771  .00016189  00000-0  11035-2 0  9996","GP_ID":"231470907","PERIAPSIS":"546.594","REF_FRAME":"TEME","RCS_SIZE":"LARGE","PERIOD":"95.593","APOAPSIS":"547.896","DECAY_DATE":null,"MEAN_MOTION_DDOT":"0.0000000000000","RA_OF_ASC_NODE":"78.0244","OBJECT_NAME":"STARLINK-1329","ECCENTRICITY":"0.00009400","BSTAR":"0.00110350000000","OBJECT_TYPE":"PAYLOAD","EPOCH":"2023-05-08T13:12:49.050144","INCLINATION":"53.0536","COUNTRY_CODE":"US","CLASSIFICATION_TYPE":"U","SEMIMAJOR_AXIS":"6925.380","CENTER_NAME":"EARTH","EPHEMERIS_TYPE":"0","MEAN_MOTION_DOT":"0.00016189","FILE":"3904305","LAUNCH_DATE":"2020-04-22","MEAN_ANOMALY":"279.2723","MEAN_ELEMENT_THEORY":"SGP4","ELEMENT_SET_NO":"999","TIME_SYSTEM":"UTC","TLE_LINE2":"2 45531  53.0536  78.0244 0000940  80.8372 279.2723 15.06389703168928"},{"MEAN_MOTION_DDOT":"0.0000000000000","RA_OF_ASC_NODE":"77.9735","OBJECT_NAME":"STARLINK-1338","BSTAR":"0.00098945000000","ECCENTRICITY":"0.00009390","SITE":"AFETR","ARG_OF_PERICENTER":"85.6394","NORAD_CAT_ID":"45532","MEAN_MOTION":"15.06387263","REV_AT_EPOCH":"16892","OBJECT_ID":"2020-025B","PERIOD":"95.593","RCS_SIZE":"LARGE","REF_FRAME":"TEME","TLE_LINE1":"1 45532U 20025B   23128.56162261  .00014482  00000-0  98945-3 0  9990","PERIAPSIS":"546.602","GP_ID":"231471152","DECAY_DATE":null,"APOAPSIS":"547.903","FILE":"3904305","MEAN_MOTION_DOT":"0.00014482","LAUNCH_DATE":"2020-04-22","TIME_SYSTEM":"UTC","MEAN_ELEMENT_THEORY":"SGP4","MEAN_ANOMALY":"274.4702","ELEMENT_SET_NO":"999","TLE_LINE2":"2 45532  53.0540  77.9735 0000939  85.6394 274.4702 15.06387263168925","OBJECT_TYPE":"PAYLOAD","EPOCH":"2023-05-08T13:28:44.193504","INCLINATION":"53.0540","SEMIMAJOR_AXIS":"6925.388","CLASSIFICATION_TYPE":"U","COUNTRY_CODE":"US","EPHEMERIS_TYPE":"0","CENTER_NAME":"EARTH"},{"EPHEMERIS_TYPE":"0","CENTER_NAME":"EARTH","SEMIMAJOR_AXIS":"6925.381","CLASSIFICATION_TYPE":"U","COUNTRY_CODE":"US","EPOCH":"2023-05-08T13:44:39.927840","INCLINATION":"53.0541","OBJECT_TYPE":"PAYLOAD","TLE_LINE2":"2 45534  53.0541  77.9274 0001002  89.9429 270.1674 15.06389557168923","LAUNCH_DATE":"2020-04-22","MEAN_ANOMALY":"270.1674","MEAN_ELEMENT_THEORY":"SGP4","ELEMENT_SET_NO":"999","TIME_SYSTEM":"UTC","FILE":"3904305","MEAN_MOTION_DOT":"0.00018668","DECAY_DATE":null,"APOAPSIS":"547.939","PERIOD":"95.593","RCS_SIZE":"LARGE","REF_FRAME":"TEME","GP_ID":"231471908","TLE_LINE1":"1 45534U 20025D   23128.57268435  .00018668  00000-0  12692-2 0  9997","PERIAPSIS":"546.552","REV_AT_EPOCH":"16892","OBJECT_ID":"2020-025D","ARG_OF_PERICENTER":"89.9429","SITE":"AFETR","NORAD_CAT_ID":"45534","MEAN_MOTION":"15.06389557","BSTAR":"0.00126920000000","ECCENTRICITY":"0.00010020","OBJECT_NAME":"STARLINK-1341","RA_OF_ASC_NODE":"77.9274","MEAN_MOTION_DDOT":"0.0000000000000"}];
